{"type": "FeatureCollection", "features": [ {"type": "Feature", "properties": {"norad_id": 66866, "name": "STARLINK-36126", "group": "last-30-days", "lat": 27.646764226618174, "lon": 166.02102792177328, "alt_km": 283.65874884131154, "timestamp": "2025-12-11T05:00:25.077434+00:00", "meta": {"OBJECT_NAME": "STARLINK-36126", "OBJECT_ID": "2025-281U", "EPOCH": "2025-12-10T18:00:02.000160", "MEAN_MOTION": 15.96440327, "ECCENTRICITY": 0.0001689, "INCLINATION": 43.002, "RA_OF_ASC_NODE": 134.6885, "ARG_OF_PERICENTER": 273.0721, "MEAN_ANOMALY": 11.8299, "EPHEMERIS_TYPE": 0, "CLASSIFICATION_TYPE": "U", "NORAD_CAT_ID": 66866, "ELEMENT_SET_NO": 999, "REV_AT_EPOCH": 247, "BSTAR": -0.0028095, "MEAN_MOTION_DOT": -0.01224235, "MEAN_MOTION_DDOT": 0.0004571}, "tle": {"line1": "1 66866U 25281U   25344.75002315 -.01224235  45710-3 -28095-2 0  9998", "line2": "2 66866  43.0020 134.6885 0001689 273.0721  11.8299 15.96440327  2478"}}, "geometry": {"type": "Point", "coordinates": [166.02102792177328, 27.646764226618174]}}, {"type": "Feature", "properties": {"norad_id": 66867, "name": "STARLINK-36101", "group": "last-30-days", "lat": 29.159477880714018, "lon": 168.59080343876155, "alt_km": 283.1996849132429, "timestamp": "2025-12-11T05:00:25.077444+00:00", "meta": {"OBJECT_NAME": "STARLINK-36101", "OBJECT_ID": "2025-281V", "EPOCH": "2025-12-10T18:00:02.000160", "MEAN_MOTION": 15.96520047, "ECCENTRICITY": 0.0001686, "INCLINATION": 43.0022, "RA_OF_ASC_NODE": 134.6817, "ARG_OF_PERICENTER": 274.9191, "MEAN_ANOMALY": 12.5728, "EPHEMERIS_TYPE": 0, "CLASSIFICATION_TYPE": "U", "NORAD_CAT_ID": 66867, "ELEMENT_SET_NO": 999, "REV_AT_EPOCH": 247, "BSTAR": -0.0027961, "MEAN_MOTION_DOT": -0.01223728, "MEAN_MOTION_DDOT": 0.00045712}, "tle": {"line1": "1 66867U 25281V   25344.75002315 -.01223728  45712-3 -27961-2 0  9998", "line2": "2 66867  43.0022 134.6817 0001686 274.9191  12.5728 15.96520047  2477"}}, "geometry": {"type": "Point", "coordinates": [168.59080343876155, 29.159477880714018]}}, {"type": "Feature", "properties": {"norad_id": 66868, "name": "STARLINK-36108", "group": "last-30-days", "lat": 30.730838854370653, "lon": 171.4423894129721, "alt_km": 282.79101872354295, "timestamp": "2025-12-11T05:00:25.077453+00:00", "meta": {"OBJECT_NAME": "STARLINK-36108", "OBJECT_ID": "2025-281W", "EPOCH": "2025-12-10T18:00:02.000160", "MEAN_MOTION": 15.96614278, "ECCENTRICITY": 0.0001671, "INCLINATION": 43.002, "RA_OF_ASC_NODE": 134.6746, "ARG_OF_PERICENTER": 272.8842, "MEAN_ANOMALY": 17.3898, "EPHEMERIS_TYPE": 0, "CLASSIFICATION_TYPE": "U", "NORAD_CAT_ID": 66868, "ELEMENT_SET_NO": 999, "REV_AT_EPOCH": 247, "BSTAR": -0.0028019, "MEAN_MOTION_DOT": -0.01232542, "MEAN_MOTION_DDOT": 0.00046361}, "tle": {"line1": "1 66868U 25281W   25344.75002315 -.01232542  46361-3 -28019-2 0  9999", "line2": "2 66868  43.0020 134.6746 0001671 272.8842  17.3898 15.96614278  2472"}}, "geometry": {"type": "Point", "coordinates": [171.4423894129721, 30.730838854370653]}}, {"type": "Feature", "properties": {"norad_id": 66869, "name": "STARLINK-36092", "group": "last-30-days", "lat": 31.903429636089847, "lon": 173.71346951987485, "alt_km": 282.4454847442639, "timestamp": "2025-12-11T05:00:25.077463+00:00", "meta": {"OBJECT_NAME": "STARLINK-36092", "OBJECT_ID": "2025-281X", "EPOCH": "2025-12-10T18:00:02.000160", "MEAN_MOTION": 15.96687641, "ECCENTRICITY": 0.0001731, "INCLINATION": 43.0021, "RA_OF_ASC_NODE": 134.6691, "ARG_OF_PERICENTER": 274.3433, "MEAN_ANOMALY": 18.0804, "EPHEMERIS_TYPE": 0, "CLASSIFICATION_TYPE": "U", "NORAD_CAT_ID": 66869, "ELEMENT_SET_NO": 999, "REV_AT_EPOCH": 247, "BSTAR": -0.0027998, "MEAN_MOTION_DOT": -0.01236576, "MEAN_MOTION_DDOT": 0.00046674}, "tle": {"line1": "1 66869U 25281X   25344.75002315 -.01236576  46674-3 -27998-2 0  9993", "line2": "2 66869  43.0021 134.6691 0001731 274.3433  18.0804 15.96687641  2472"}}, "geometry": {"type": "Point", "coordinates": [173.71346951987485, 31.903429636089847]}}, {"type": "Feature", "properties": {"norad_id": 66870, "name": "STARLINK-36114", "group": "last-30-days", "lat": 33.37589034032523, "lon": 176.7763092126314, "alt_km": 281.996569293211, "timestamp": "2025-12-11T05:00:25.077475+00:00", "meta": {"OBJECT_NAME": "STARLINK-36114", "OBJECT_ID": "2025-281Y", "EPOCH": "2025-12-10T18:00:02.000160", "MEAN_MOTION": 15.96782568, "ECCENTRICITY": 0.0001629, "INCLINATION": 43.002, "RA_OF_ASC_NODE": 134.662, "ARG_OF_PERICENTER": 272.0351, "MEAN_ANOMALY": 23.2092, "EPHEMERIS_TYPE": 0, "CLASSIFICATION_TYPE": "U", "NORAD_CAT_ID": 66870, "ELEMENT_SET_NO": 999, "REV_AT_EPOCH": 247, "BSTAR": -0.002797, "MEAN_MOTION_DOT": -0.01241749, "MEAN_MOTION_DDOT": 0.00047077}, "tle": {"line1": "1 66870U 25281Y   25344.75002315 -.01241749  47077-3 -27970-2 0  9991", "line2": "2 66870  43.0020 134.6620 0001629 272.0351  23.2092 15.96782568  2476"}}, "geometry": {"type": "Point", "coordinates": [176.7763092126314, 33.37589034032523]}}, {"type": "Feature", "properties": {"norad_id": 66871, "name": "STARLINK-36095", "group": "last-30-days", "lat": 34.8023207729403, "lon": -179.98173514905477, "alt_km": 281.51844235873523, "timestamp": "2025-12-11T05:00:25.077485+00:00", "meta": {"OBJECT_NAME": "STARLINK-36095", "OBJECT_ID": "2025-281Z", "EPOCH": "2025-12-10T18:00:02.000160", "MEAN_MOTION": 15.96880545, "ECCENTRICITY": 0.000163, "INCLINATION": 43.0018, "RA_OF_ASC_NODE": 134.6543, "ARG_OF_PERICENTER": 274.017, "MEAN_ANOMALY": 24.1112, "EPHEMERIS_TYPE": 0, "CLASSIFICATION_TYPE": "U", "NORAD_CAT_ID": 66871, "ELEMENT_SET_NO": 999, "REV_AT_EPOCH": 247, "BSTAR": -0.0027933, "MEAN_MOTION_DOT": -0.01246757, "MEAN_MOTION_DDOT": 0.00047473}, "tle": {"line1": "1 66871U 25281Z   25344.75002315 -.01246757  47473-3 -27933-2 0  9995", "line2": "2 66871  43.0018 134.6543 0001630 274.0170  24.1112 15.96880545  2478"}}, "geometry": {"type": "Point", "coordinates": [-179.98173514905477, 34.8023207729403]}}, {"type": "Feature", "properties": {"norad_id": 66872, "name": "STARLINK-36082", "group": "last-30-days", "lat": 35.697623413030335, "lon": -177.77551855228344, "alt_km": 281.3075423628143, "timestamp": "2025-12-11T05:00:25.077495+00:00", "meta": {"OBJECT_NAME": "STARLINK-36082", "OBJECT_ID": "2025-281AA", "EPOCH": "2025-12-10T18:00:02.000160", "MEAN_MOTION": 15.9694067, "ECCENTRICITY": 0.0001725, "INCLINATION": 43.0018, "RA_OF_ASC_NODE": 134.6495, "ARG_OF_PERICENTER": 271.8713, "MEAN_ANOMALY": 28.1659, "EPHEMERIS_TYPE": 0, "CLASSIFICATION_TYPE": "U", "NORAD_CAT_ID": 66872, "ELEMENT_SET_NO": 999, "REV_AT_EPOCH": 247, "BSTAR": -0.0027683, "MEAN_MOTION_DOT": -0.01239806, "MEAN_MOTION_DDOT": 0.00047019}, "tle": {"line1": "1 66872U 25281AA  25344.75002315 -.01239806  47019-3 -27683-2 0  9991", "line2": "2 66872  43.0018 134.6495 0001725 271.8713  28.1659 15.96940670  2474"}}, "geometry": {"type": "Point", "coordinates": [-177.77551855228344, 35.697623413030335]}}, {"type": "Feature", "properties": {"norad_id": 66873, "name": "STARLINK-36128", "group": "last-30-days", "lat": 38.691493231239185, "lon": -168.98543718866327, "alt_km": 280.24264894468797, "timestamp": "2025-12-11T05:00:25.077505+00:00", "meta": {"OBJECT_NAME": "STARLINK-36128", "OBJECT_ID": "2025-281AB", "EPOCH": "2025-12-10T18:00:02.000160", "MEAN_MOTION": 15.97195544, "ECCENTRICITY": 0.0001713, "INCLINATION": 43.0015, "RA_OF_ASC_NODE": 134.6311, "ARG_OF_PERICENTER": 272.8425, "MEAN_ANOMALY": 34.4024, "EPHEMERIS_TYPE": 0, "CLASSIFICATION_TYPE": "U", "NORAD_CAT_ID": 66873, "ELEMENT_SET_NO": 999, "REV_AT_EPOCH": 242, "BSTAR": -0.0027664, "MEAN_MOTION_DOT": -0.01256354, "MEAN_MOTION_DDOT": 0.000483}, "tle": {"line1": "1 66873U 25281AB  25344.75002315 -.01256354  48300-3 -27664-2 0  9992", "line2": "2 66873  43.0015 134.6311 0001713 272.8425  34.4024 15.97195544  2421"}}, "geometry": {"type": "Point", "coordinates": [-168.98543718866327, 38.691493231239185]}}, {"type": "Feature", "properties": {"norad_id": 66874, "name": "STARLINK-36129", "group": "last-30-days", "lat": 36.92313551202562, "lon": -174.48544138714865, "alt_km": 280.87002823324656, "timestamp": "2025-12-11T05:00:25.077516+00:00", "meta": {"OBJECT_NAME": "STARLINK-36129", "OBJECT_ID": "2025-281AC", "EPOCH": "2025-12-10T18:00:02.000160", "MEAN_MOTION": 15.97038594, "ECCENTRICITY": 0.0001722, "INCLINATION": 43.0018, "RA_OF_ASC_NODE": 134.6426, "ARG_OF_PERICENTER": 273.407, "MEAN_ANOMALY": 29.3953, "EPHEMERIS_TYPE": 0, "CLASSIFICATION_TYPE": "U", "NORAD_CAT_ID": 66874, "ELEMENT_SET_NO": 999, "REV_AT_EPOCH": 247, "BSTAR": -0.0027677, "MEAN_MOTION_DOT": -0.01246183, "MEAN_MOTION_DDOT": 0.0004751}, "tle": {"line1": "1 66874U 25281AC  25344.75002315 -.01246183  47510-3 -27677-2 0  9998", "line2": "2 66874  43.0018 134.6426 0001722 273.4070  29.3953 15.97038594  2475"}}, "geometry": {"type": "Point", "coordinates": [-174.48544138714865, 36.92313551202562]}}, {"type": "Feature", "properties": {"norad_id": 66875, "name": "STARLINK-36053", "group": "last-30-days", "lat": 39.541060109437744, "lon": -165.88744847609013, "alt_km": 279.86743979508174, "timestamp": "2025-12-11T05:00:25.077526+00:00", "meta": {"OBJECT_NAME": "STARLINK-36053", "OBJECT_ID": "2025-281AD", "EPOCH": "2025-12-10T18:00:02.000160", "MEAN_MOTION": 15.97277493, "ECCENTRICITY": 0.0001692, "INCLINATION": 43.0017, "RA_OF_ASC_NODE": 134.6244, "ARG_OF_PERICENTER": 274.4156, "MEAN_ANOMALY": 35.2421, "EPHEMERIS_TYPE": 0, "CLASSIFICATION_TYPE": "U", "NORAD_CAT_ID": 66875, "ELEMENT_SET_NO": 999, "REV_AT_EPOCH": 242, "BSTAR": -0.0027453, "MEAN_MOTION_DOT": -0.01252507, "MEAN_MOTION_DDOT": 0.0004807}, "tle": {"line1": "1 66875U 25281AD  25344.75002315 -.01252507  48070-3 -27453-2 0  9990", "line2": "2 66875  43.0017 134.6244 0001692 274.4156  35.2421 15.97277493  2429"}}, "geometry": {"type": "Point", "coordinates": [-165.88744847609013, 39.541060109437744]}}]}